{"type": "FeatureCollection", "features": [ {"type": "Feature", "properties": {"norad_id": 37216, "name": "COSMO-SKYMED 4", "group": "resource", "lat": 73.31597786536709, "lon": 29.209684893496323, "alt_km": 614.5768143965588, "timestamp": "2025-12-26T13:39:18.617625+00:00", "meta": {"OBJECT_NAME": "COSMO-SKYMED 4", "OBJECT_ID": "2010-060A", "EPOCH": "2025-12-26T06:42:12.672576", "MEAN_MOTION": 14.82162379, "ECCENTRICITY": 0.00014036, "INCLINATION": 97.8807, "RA_OF_ASC_NODE": 181.3985, "ARG_OF_PERICENTER": 82.731, "MEAN_ANOMALY": 277.4063, "EPHEMERIS_TYPE": 0, "CLASSIFICATION_TYPE": "U", "NORAD_CAT_ID": 37216, "ELEMENT_SET_NO": 999, "REV_AT_EPOCH": 81895, "BSTAR": 0.00012756874, "MEAN_MOTION_DOT": 9.64e-06, "MEAN_MOTION_DDOT": 0}, "tle": {"line1": "1 37216U 10060A   25360.27931334  .00000964  00000+0  12757-3 0  9997", "line2": "2 37216  97.8807 181.3985 0001403  82.7310 277.4063 14.82162379818957"}}, "geometry": {"type": "Point", "coordinates": [29.209684893496323, 73.31597786536709]}}, {"type": "Feature", "properties": {"norad_id": 37387, "name": "RESOURCESAT-2", "group": "resource", "lat": -58.83872664855705, "lon": 78.87590107148316, "alt_km": 825.2223938602374, "timestamp": "2025-12-26T13:39:18.617635+00:00", "meta": {"OBJECT_NAME": "RESOURCESAT-2", "OBJECT_ID": "2011-015A", "EPOCH": "2025-12-26T05:29:26.505600", "MEAN_MOTION": 14.21602398, "ECCENTRICITY": 0.0005761, "INCLINATION": 98.7859, "RA_OF_ASC_NODE": 63.719, "ARG_OF_PERICENTER": 5.3992, "MEAN_ANOMALY": 354.7247, "EPHEMERIS_TYPE": 0, "CLASSIFICATION_TYPE": "U", "NORAD_CAT_ID": 37387, "ELEMENT_SET_NO": 999, "REV_AT_EPOCH": 76160, "BSTAR": 7.9162132e-05, "MEAN_MOTION_DOT": 1.29e-06, "MEAN_MOTION_DDOT": 0}, "tle": {"line1": "1 37387U 11015A   25360.22877900  .00000129  00000+0  79162-4 0  9997", "line2": "2 37387  98.7859  63.7190 0005761   5.3992 354.7247 14.21602398761607"}}, "geometry": {"type": "Point", "coordinates": [78.87590107148316, -58.83872664855705]}}, {"type": "Feature", "properties": {"norad_id": 37781, "name": "HAIYANG-2A", "group": "resource", "lat": 21.922940165363034, "lon": -2.506730574354238, "alt_km": 966.7859540036561, "timestamp": "2025-12-26T13:39:18.617646+00:00", "meta": {"OBJECT_NAME": "HAIYANG-2A", "OBJECT_ID": "2011-043A", "EPOCH": "2025-12-26T06:34:53.770944", "MEAN_MOTION": 13.78836318, "ECCENTRICITY": 0.00015737, "INCLINATION": 99.3382, "RA_OF_ASC_NODE": 1.0001, "ARG_OF_PERICENTER": 65.1633, "MEAN_ANOMALY": 294.9682, "EPHEMERIS_TYPE": 0, "CLASSIFICATION_TYPE": "U", "NORAD_CAT_ID": 37781, "ELEMENT_SET_NO": 999, "REV_AT_EPOCH": 72285, "BSTAR": 2.365859e-05, "MEAN_MOTION_DOT": -2e-07, "MEAN_MOTION_DDOT": 0}, "tle": {"line1": "1 37781U 11043A   25360.27423346 -.00000020  00000+0  23659-4 0  9993", "line2": "2 37781  99.3382   1.0001 0001573  65.1633 294.9682 13.78836318722856"}}, "geometry": {"type": "Point", "coordinates": [-2.506730574354238, 21.922940165363034]}}, {"type": "Feature", "properties": {"norad_id": 37791, "name": "RASAT", "group": "resource", "lat": -65.31399301961942, "lon": -108.34410675099035, "alt_km": 685.7538775771973, "timestamp": "2025-12-26T13:39:18.617656+00:00", "meta": {"OBJECT_NAME": "RASAT", "OBJECT_ID": "2011-044D", "EPOCH": "2025-12-26T06:19:58.528704", "MEAN_MOTION": 14.67927828, "ECCENTRICITY": 0.00212292, "INCLINATION": 98.0639, "RA_OF_ASC_NODE": 89.3203, "ARG_OF_PERICENTER": 24.0189, "MEAN_ANOMALY": 51.3751, "EPHEMERIS_TYPE": 0, "CLASSIFICATION_TYPE": "U", "NORAD_CAT_ID": 37791, "ELEMENT_SET_NO": 999, "REV_AT_EPOCH": 76781, "BSTAR": 0.00011691365, "MEAN_MOTION_DOT": 6.22e-06, "MEAN_MOTION_DDOT": 0}, "tle": {"line1": "1 37791U 11044D   25360.26387186  .00000622  00000+0  11691-3 0  9994", "line2": "2 37791  98.0639  89.3203 0021229  24.0189  51.3751 14.67927828767814"}}, "geometry": {"type": "Point", "coordinates": [-108.34410675099035, -65.31399301961942]}}, {"type": "Feature", "properties": {"norad_id": 37841, "name": "SRMSAT", "group": "resource", "lat": -17.373445175213515, "lon": -35.21649522306713, "alt_km": 862.2201537198407, "timestamp": "2025-12-26T13:39:18.617667+00:00", "meta": {"OBJECT_NAME": "SRMSAT", "OBJECT_ID": "2011-058D", "EPOCH": "2025-12-26T02:10:29.616384", "MEAN_MOTION": 14.11515861, "ECCENTRICITY": 0.00119908, "INCLINATION": 19.9732, "RA_OF_ASC_NODE": 27.151, "ARG_OF_PERICENTER": 99.3628, "MEAN_ANOMALY": 283.7397, "EPHEMERIS_TYPE": 0, "CLASSIFICATION_TYPE": "U", "NORAD_CAT_ID": 37841, "ELEMENT_SET_NO": 999, "REV_AT_EPOCH": 73333, "BSTAR": 9.1637558e-05, "MEAN_MOTION_DOT": 4.34e-06, "MEAN_MOTION_DDOT": 0}, "tle": {"line1": "1 37841U 11058D   25360.09062056  .00000434  00000+0  91638-4 0  9993", "line2": "2 37841  19.9732  27.1510 0011990  99.3628 283.7397 14.11515861733330"}}, "geometry": {"type": "Point", "coordinates": [-35.21649522306713, -17.373445175213515]}}, {"type": "Feature", "properties": {"norad_id": 38012, "name": "PLEIADES 1A", "group": "resource", "lat": -61.87685080253312, "lon": 88.736277622558, "alt_km": 705.5318156253352, "timestamp": "2025-12-26T13:39:18.617677+00:00", "meta": {"OBJECT_NAME": "PLEIADES 1A", "OBJECT_ID": "2011-076F", "EPOCH": "2025-12-26T06:03:52.828992", "MEAN_MOTION": 14.58573279, "ECCENTRICITY": 0.00010645, "INCLINATION": 98.1804, "RA_OF_ASC_NODE": 72.8118, "ARG_OF_PERICENTER": 78.425, "MEAN_ANOMALY": 358.9312, "EPHEMERIS_TYPE": 0, "CLASSIFICATION_TYPE": "U", "NORAD_CAT_ID": 38012, "ELEMENT_SET_NO": 999, "REV_AT_EPOCH": 74678, "BSTAR": 7.5361824e-05, "MEAN_MOTION_DOT": 3.05e-06, "MEAN_MOTION_DDOT": 0}, "tle": {"line1": "1 38012U 11076F   25360.25269478  .00000305  00000+0  75362-4 0  9992", "line2": "2 38012  98.1804  72.8118 0001064  78.4250 358.9312 14.58573279746784"}}, "geometry": {"type": "Point", "coordinates": [88.736277622558, -61.87685080253312]}}, {"type": "Feature", "properties": {"norad_id": 38038, "name": "ZIYUAN 1-02C (ZY 1-02C)", "group": "resource", "lat": -79.42921162236212, "lon": -166.30788589530914, "alt_km": 777.4746012557725, "timestamp": "2025-12-26T13:39:18.617688+00:00", "meta": {"OBJECT_NAME": "ZIYUAN 1-02C (ZY 1-02C)", "OBJECT_ID": "2011-079A", "EPOCH": "2025-12-26T07:50:12.489216", "MEAN_MOTION": 14.38027273, "ECCENTRICITY": 0.00075714, "INCLINATION": 98.4312, "RA_OF_ASC_NODE": 66.0887, "ARG_OF_PERICENTER": 103.111, "MEAN_ANOMALY": 346.133, "EPHEMERIS_TYPE": 0, "CLASSIFICATION_TYPE": "U", "NORAD_CAT_ID": 38038, "ELEMENT_SET_NO": 999, "REV_AT_EPOCH": 73436, "BSTAR": 0.00020600241, "MEAN_MOTION_DOT": 5.8e-06, "MEAN_MOTION_DDOT": 0}, "tle": {"line1": "1 38038U 11079A   25360.32653344  .00000580  00000+0  20600-3 0  9999", "line2": "2 38038  98.4312  66.0887 0007571 103.1110 346.1330 14.38027273734363"}}, "geometry": {"type": "Point", "coordinates": [-166.30788589530914, -79.42921162236212]}}, {"type": "Feature", "properties": {"norad_id": 38338, "name": "ARIRANG-3 (KOMPSAT-3)", "group": "resource", "lat": -8.519481687086644, "lon": -43.47776446270485, "alt_km": 690.1049566211568, "timestamp": "2025-12-26T13:39:18.617699+00:00", "meta": {"OBJECT_NAME": "ARIRANG-3 (KOMPSAT-3)", "OBJECT_ID": "2012-025B", "EPOCH": "2025-12-26T07:07:22.815840", "MEAN_MOTION": 14.61730108, "ECCENTRICITY": 0.00046642, "INCLINATION": 98.3342, "RA_OF_ASC_NODE": 314.9897, "ARG_OF_PERICENTER": 289.6071, "MEAN_ANOMALY": 70.4626, "EPHEMERIS_TYPE": 0, "CLASSIFICATION_TYPE": "U", "NORAD_CAT_ID": 38338, "ELEMENT_SET_NO": 999, "REV_AT_EPOCH": 72608, "BSTAR": 0.0001359984, "MEAN_MOTION_DOT": 6.29e-06, "MEAN_MOTION_DDOT": 0}, "tle": {"line1": "1 38338U 12025B   25360.29679185  .00000629  00000+0  13600-3 0  9997", "line2": "2 38338  98.3342 314.9897 0004664 289.6071  70.4626 14.61730108726089"}}, "geometry": {"type": "Point", "coordinates": [-43.47776446270485, -8.519481687086644]}}, {"type": "Feature", "properties": {"norad_id": 38709, "name": "EXACTVIEW-1 (ADS-1B)", "group": "resource", "lat": -39.647798878068905, "lon": 116.76482417531712, "alt_km": 808.0375688643444, "timestamp": "2025-12-26T13:39:18.617709+00:00", "meta": {"OBJECT_NAME": "EXACTVIEW-1 (ADS-1B)", "OBJECT_ID": "2012-039C", "EPOCH": "2025-12-26T07:06:08.194752", "MEAN_MOTION": 14.2491336, "ECCENTRICITY": 0.00100826, "INCLINATION": 98.9638, "RA_OF_ASC_NODE": 108.9705, "ARG_OF_PERICENTER": 313.3371, "MEAN_ANOMALY": 46.6966, "EPHEMERIS_TYPE": 0, "CLASSIFICATION_TYPE": "U", "NORAD_CAT_ID": 38709, "ELEMENT_SET_NO": 999, "REV_AT_EPOCH": 69808, "BSTAR": 9.1878731e-05, "MEAN_MOTION_DOT": 1.68e-06, "MEAN_MOTION_DDOT": 0}, "tle": {"line1": "1 38709U 12039C   25360.29592818  .00000168  00000+0  91879-4 0  9994", "line2": "2 38709  98.9638 108.9705 0010082 313.3371  46.6966 14.24913360698085"}}, "geometry": {"type": "Point", "coordinates": [116.76482417531712, -39.647798878068905]}}, {"type": "Feature", "properties": {"norad_id": 38755, "name": "SPOT 6", "group": "resource", "lat": -39.82920408534308, "lon": -121.77181901700683, "alt_km": 705.0765830220507, "timestamp": "2025-12-26T13:39:18.617720+00:00", "meta": {"OBJECT_NAME": "SPOT 6", "OBJECT_ID": "2012-047A", "EPOCH": "2025-12-26T07:42:33.420096", "MEAN_MOTION": 14.58544646, "ECCENTRICITY": 0.0001231, "INCLINATION": 98.155, "RA_OF_ASC_NODE": 64.8539, "ARG_OF_PERICENTER": 77.8409, "MEAN_ANOMALY": 282.2928, "EPHEMERIS_TYPE": 0, "CLASSIFICATION_TYPE": "U", "NORAD_CAT_ID": 38755, "ELEMENT_SET_NO": 999, "REV_AT_EPOCH": 70785, "BSTAR": 0.00013049826, "MEAN_MOTION_DOT": 5.61e-06, "MEAN_MOTION_DDOT": 0}, "tle": {"line1": "1 38755U 12047A   25360.32122014  .00000561  00000+0  13050-3 0  9996", "line2": "2 38755  98.1550  64.8539 0001231  77.8409 282.2928 14.58544646707852"}}, "geometry": {"type": "Point", "coordinates": [-121.77181901700683, -39.82920408534308]}}]}